{"type": "FeatureCollection", "features": [ {"type": "Feature", "properties": {"norad_id": 66536, "name": "STARLINK-35640", "group": "last-30-days", "lat": 19.636293619747587, "lon": 36.37074465319273, "alt_km": 441.27529031551694, "timestamp": "2025-12-19T14:48:34.963143+00:00", "meta": {"OBJECT_NAME": "STARLINK-35640", "OBJECT_ID": "2025-265W", "EPOCH": "2025-12-19T08:00:01.999872", "MEAN_MOTION": 15.4067562, "ECCENTRICITY": 0.0001173, "INCLINATION": 42.9999, "RA_OF_ASC_NODE": 15.4931, "ARG_OF_PERICENTER": 276.0783, "MEAN_ANOMALY": 338.0336, "EPHEMERIS_TYPE": 0, "CLASSIFICATION_TYPE": "U", "NORAD_CAT_ID": 66536, "ELEMENT_SET_NO": 999, "REV_AT_EPOCH": 603, "BSTAR": 0.00045607332, "MEAN_MOTION_DOT": 0.00018779, "MEAN_MOTION_DDOT": 0}, "tle": {"line1": "1 66536U 25265W   25353.33335648  .00018779  00000+0  45607-3 0  9995", "line2": "2 66536  42.9999  15.4931 0001173 276.0783 338.0336 15.40675620  6039"}}, "geometry": {"type": "Point", "coordinates": [36.37074465319273, 19.636293619747587]}}, {"type": "Feature", "properties": {"norad_id": 66537, "name": "STARLINK-35582", "group": "last-30-days", "lat": 33.70371365421092, "lon": 59.506311253193175, "alt_km": 438.6210425635272, "timestamp": "2025-12-19T14:48:34.963155+00:00", "meta": {"OBJECT_NAME": "STARLINK-35582", "OBJECT_ID": "2025-265X", "EPOCH": "2025-12-19T08:00:01.999872", "MEAN_MOTION": 15.41952864, "ECCENTRICITY": 9.284e-05, "INCLINATION": 43, "RA_OF_ASC_NODE": 15.4355, "ARG_OF_PERICENTER": 285.6373, "MEAN_ANOMALY": 352.6429, "EPHEMERIS_TYPE": 0, "CLASSIFICATION_TYPE": "U", "NORAD_CAT_ID": 66537, "ELEMENT_SET_NO": 999, "REV_AT_EPOCH": 605, "BSTAR": -0.043588734, "MEAN_MOTION_DOT": -0.01719831, "MEAN_MOTION_DDOT": 0}, "tle": {"line1": "1 66537U 25265X   25353.33335648 -.01719831  00000+0 -43589-1 0  9991", "line2": "2 66537  43.0000  15.4355 0000928 285.6373 352.6429 15.41952864  6059"}}, "geometry": {"type": "Point", "coordinates": [59.506311253193175, 33.70371365421092]}}, {"type": "Feature", "properties": {"norad_id": 66538, "name": "STARLINK-35577", "group": "last-30-days", "lat": 42.645509596679524, "lon": 112.44685141856283, "alt_km": 407.9687339087195, "timestamp": "2025-12-19T14:48:34.963165+00:00", "meta": {"OBJECT_NAME": "STARLINK-35577", "OBJECT_ID": "2025-265Y", "EPOCH": "2025-12-17T09:50:26.132352", "MEAN_MOTION": 15.50591082, "ECCENTRICITY": 0.00013928, "INCLINATION": 43.001, "RA_OF_ASC_NODE": 26.6049, "ARG_OF_PERICENTER": 263.8064, "MEAN_ANOMALY": 96.2638, "EPHEMERIS_TYPE": 0, "CLASSIFICATION_TYPE": "U", "NORAD_CAT_ID": 66538, "ELEMENT_SET_NO": 999, "REV_AT_EPOCH": 448, "BSTAR": 0.0015140009, "MEAN_MOTION_DOT": 0.00089538, "MEAN_MOTION_DDOT": 0}, "tle": {"line1": "1 66538U 25265Y   25351.41002468  .00089538  00000+0  15140-2 0  9994", "line2": "2 66538  43.0010  26.6049 0001392 263.8064  96.2638 15.50591082  4485"}}, "geometry": {"type": "Point", "coordinates": [112.44685141856283, 42.645509596679524]}}, {"type": "Feature", "properties": {"norad_id": 66539, "name": "STARLINK-35697", "group": "last-30-days", "lat": 42.79173282880236, "lon": 110.26104959191237, "alt_km": 410.72494106971953, "timestamp": "2025-12-19T14:48:34.963178+00:00", "meta": {"OBJECT_NAME": "STARLINK-35697", "OBJECT_ID": "2025-265Z", "EPOCH": "2025-12-18T12:06:52.643808", "MEAN_MOTION": 15.50318925, "ECCENTRICITY": 0.00012809, "INCLINATION": 43.0002, "RA_OF_ASC_NODE": 20.1983, "ARG_OF_PERICENTER": 281.5307, "MEAN_ANOMALY": 78.5409, "EPHEMERIS_TYPE": 0, "CLASSIFICATION_TYPE": "U", "NORAD_CAT_ID": 66539, "ELEMENT_SET_NO": 999, "REV_AT_EPOCH": 465, "BSTAR": -0.0022901709, "MEAN_MOTION_DOT": -0.00131246, "MEAN_MOTION_DDOT": 0}, "tle": {"line1": "1 66539U 25265Z   25352.50477597 -.00131246  00000+0 -22902-2 0  9995", "line2": "2 66539  43.0002  20.1983 0001280 281.5307  78.5409 15.50318925  4657"}}, "geometry": {"type": "Point", "coordinates": [110.26104959191237, 42.79173282880236]}}, {"type": "Feature", "properties": {"norad_id": 66540, "name": "STARLINK-35818", "group": "last-30-days", "lat": 42.322643071296305, "lon": 115.91693127203655, "alt_km": 408.7705428578165, "timestamp": "2025-12-19T14:48:34.963189+00:00", "meta": {"OBJECT_NAME": "STARLINK-35818", "OBJECT_ID": "2025-265AA", "EPOCH": "2025-12-18T10:33:34.746336", "MEAN_MOTION": 15.50612575, "ECCENTRICITY": 0.00015071, "INCLINATION": 42.999, "RA_OF_ASC_NODE": 20.5704, "ARG_OF_PERICENTER": 269.1628, "MEAN_ANOMALY": 90.9059, "EPHEMERIS_TYPE": 0, "CLASSIFICATION_TYPE": "U", "NORAD_CAT_ID": 66540, "ELEMENT_SET_NO": 999, "REV_AT_EPOCH": 464, "BSTAR": 0.0010984027, "MEAN_MOTION_DOT": 0.00064709, "MEAN_MOTION_DDOT": 0}, "tle": {"line1": "1 66540U 25265AA  25352.43998549  .00064709  00000+0  10984-2 0  9998", "line2": "2 66540  42.9990  20.5704 0001507 269.1628  90.9059 15.50612575  4644"}}, "geometry": {"type": "Point", "coordinates": [115.91693127203655, 42.322643071296305]}}, {"type": "Feature", "properties": {"norad_id": 66541, "name": "STARLINK-35796", "group": "last-30-days", "lat": -40.66968074749041, "lon": -98.57776163391765, "alt_km": 446.7403671590455, "timestamp": "2025-12-19T14:48:34.963200+00:00", "meta": {"OBJECT_NAME": "STARLINK-35796", "OBJECT_ID": "2025-265AB", "EPOCH": "2025-12-19T02:49:34.713696", "MEAN_MOTION": 15.4073783, "ECCENTRICITY": 7.741e-05, "INCLINATION": 42.9978, "RA_OF_ASC_NODE": 17.0625, "ARG_OF_PERICENTER": 202.0708, "MEAN_ANOMALY": 158.0115, "EPHEMERIS_TYPE": 0, "CLASSIFICATION_TYPE": "U", "NORAD_CAT_ID": 66541, "ELEMENT_SET_NO": 999, "REV_AT_EPOCH": 474, "BSTAR": 0.00093880278, "MEAN_MOTION_DOT": 0.00039163, "MEAN_MOTION_DDOT": 0}, "tle": {"line1": "1 66541U 25265AB  25353.11776289  .00039163  00000+0  93880-3 0  9993", "line2": "2 66541  42.9978  17.0625 0000774 202.0708 158.0115 15.40737830  4745"}}, "geometry": {"type": "Point", "coordinates": [-98.57776163391765, -40.66968074749041]}}, {"type": "Feature", "properties": {"norad_id": 66542, "name": "STARLINK-35833", "group": "last-30-days", "lat": -35.11562333482886, "lon": -34.924746605253674, "alt_km": 446.62008445192987, "timestamp": "2025-12-19T14:48:34.963211+00:00", "meta": {"OBJECT_NAME": "STARLINK-35833", "OBJECT_ID": "2025-265AC", "EPOCH": "2025-12-19T08:00:01.999872", "MEAN_MOTION": 15.40680112, "ECCENTRICITY": 9.106e-05, "INCLINATION": 43.0004, "RA_OF_ASC_NODE": 15.704, "ARG_OF_PERICENTER": 258.7116, "MEAN_ANOMALY": 268.306, "EPHEMERIS_TYPE": 0, "CLASSIFICATION_TYPE": "U", "NORAD_CAT_ID": 66542, "ELEMENT_SET_NO": 999, "REV_AT_EPOCH": 605, "BSTAR": 0.00044200321, "MEAN_MOTION_DOT": 0.00018192, "MEAN_MOTION_DDOT": 0}, "tle": {"line1": "1 66542U 25265AC  25353.33335648  .00018192  00000+0  44200-3 0  9999", "line2": "2 66542  43.0004  15.7040 0000910 258.7116 268.3060 15.40680112  6057"}}, "geometry": {"type": "Point", "coordinates": [-34.924746605253674, -35.11562333482886]}}, {"type": "Feature", "properties": {"norad_id": 66543, "name": "STARLINK-35315", "group": "last-30-days", "lat": 3.154319013485721, "lon": 17.307310177688784, "alt_km": 443.27164045340396, "timestamp": "2025-12-19T14:48:34.963222+00:00", "meta": {"OBJECT_NAME": "STARLINK-35315", "OBJECT_ID": "2025-265AD", "EPOCH": "2025-12-19T08:00:01.999872", "MEAN_MOTION": 15.40686515, "ECCENTRICITY": 0.00015715, "INCLINATION": 42.9998, "RA_OF_ASC_NODE": 15.5522, "ARG_OF_PERICENTER": 279.7283, "MEAN_ANOMALY": 309.4758, "EPHEMERIS_TYPE": 0, "CLASSIFICATION_TYPE": "U", "NORAD_CAT_ID": 66543, "ELEMENT_SET_NO": 999, "REV_AT_EPOCH": 594, "BSTAR": 0.00050977163, "MEAN_MOTION_DOT": 0.0002104, "MEAN_MOTION_DDOT": 0}, "tle": {"line1": "1 66543U 25265AD  25353.33335648  .00021040  00000+0  50977-3 0  9994", "line2": "2 66543  42.9998  15.5522 0001571 279.7283 309.4758 15.40686515  5944"}}, "geometry": {"type": "Point", "coordinates": [17.307310177688784, 3.154319013485721]}}, {"type": "Feature", "properties": {"norad_id": 66544, "name": "STARLINK-35728", "group": "last-30-days", "lat": 41.691177802080226, "lon": 120.75020317459048, "alt_km": 412.87527099579347, "timestamp": "2025-12-19T14:48:34.963233+00:00", "meta": {"OBJECT_NAME": "STARLINK-35728", "OBJECT_ID": "2025-265AE", "EPOCH": "2025-12-19T05:05:00.258720", "MEAN_MOTION": 15.48938165, "ECCENTRICITY": 7.02e-05, "INCLINATION": 42.9972, "RA_OF_ASC_NODE": 16.0415, "ARG_OF_PERICENTER": 172.7753, "MEAN_ANOMALY": 187.3116, "EPHEMERIS_TYPE": 0, "CLASSIFICATION_TYPE": "U", "NORAD_CAT_ID": 66544, "ELEMENT_SET_NO": 999, "REV_AT_EPOCH": 476, "BSTAR": 0.0014018972, "MEAN_MOTION_DOT": 0.00078047, "MEAN_MOTION_DDOT": 0}, "tle": {"line1": "1 66544U 25265AE  25353.21180855  .00078047  00000+0  14019-2 0  9995", "line2": "2 66544  42.9972  16.0415 0000702 172.7753 187.3116 15.48938165  4762"}}, "geometry": {"type": "Point", "coordinates": [120.75020317459048, 41.691177802080226]}}, {"type": "Feature", "properties": {"norad_id": 66545, "name": "SHIJIAN-30A (SJ-30A)", "group": "last-30-days", "lat": 9.384671739433974, "lon": -51.87925227543638, "alt_km": 509.7134201261815, "timestamp": "2025-12-19T14:48:34.963243+00:00", "meta": {"OBJECT_NAME": "SHIJIAN-30A (SJ-30A)", "OBJECT_ID": "2025-266A", "EPOCH": "2025-12-19T06:50:40.226784", "MEAN_MOTION": 15.15591551, "ECCENTRICITY": 0.00130419, "INCLINATION": 51.7999, "RA_OF_ASC_NODE": 302.198, "ARG_OF_PERICENTER": 19.4231, "MEAN_ANOMALY": 340.724, "EPHEMERIS_TYPE": 0, "CLASSIFICATION_TYPE": "U", "NORAD_CAT_ID": 66545, "ELEMENT_SET_NO": 999, "REV_AT_EPOCH": 457, "BSTAR": 0.00046935761, "MEAN_MOTION_DOT": 8.74e-05, "MEAN_MOTION_DDOT": 0}, "tle": {"line1": "1 66545U 25266A   25353.28518781  .00008740  00000+0  46936-3 0  9994", "line2": "2 66545  51.7999 302.1980 0013041  19.4231 340.7240 15.15591551  4574"}}, "geometry": {"type": "Point", "coordinates": [-51.87925227543638, 9.384671739433974]}}]}